353P/McNaught,e,28.4101,121.4571,230.5309,4.170448,0.1157258,0.46966716,336.6917,12/12.0/2025,2000,g 14.5,4.0
# From MPEC 2025-W75
354P/LINEAR,e,5.2511,320.0557,133.0021,2.290224,0.2843723,0.12445644,224.5091,12/12.0/2025,2000,g 15.5,4.0
# From MPEC 2025-W75
355P/LINEAR-NEAT,e,11.0461,51.4216,336.2474,3.466569,0.1527054,0.50787624,94.6545,12/12.0/2025,2000,g 15.5,2.0
# From MPEC 2025-W75
356P/WISE,e,9.6399,160.7448,226.2900,4.151007,0.1165397,0.35570556,338.7395,12/12.0/2025,2000,g 14.0,4.0
# From MPEC 2025-W75
357P/Hill,e,6.3134,44.5358,1.5532,4.454390,0.1048387,0.43590037,287.9944,12/12.0/2025,2000,g 15.5,4.0
# From MPEC 2025-W75
358P/PANSTARRS,e,11.0667,85.6656,299.2993,3.145408,0.1766805,0.23942241,134.9291,12/12.0/2025,2000,g 18.0,4.0
# From MPEC 2025-W75
359P/LONEOS,e,10.2589,149.6904,200.3036,4.643058,0.0985140,0.32298527,298.8824,12/12.0/2025,2000,g 13.5,4.0
# From MPEC 2025-W75
360P/WISE,e,24.1126,2.0707,354.4038,3.700009,0.1384841,0.49966194,60.1133,12/12.0/2025,2000,g 19.5,6.0
# From MPEC 2025-W75
361P/Spacewatch,e,13.8956,203.2119,219.1656,4.932735,0.0899648,0.43942146,244.1248,12/12.0/2025,2000,g 12.0,4.0
# From MPEC 2025-W75
363P/Lemmon,e,5.3938,146.7518,340.7897,3.575626,0.1457726,0.51861492,57.3962,12/12.0/2025,2000,g 17.5,4.0
# From MPEC 2025-W75
364P/PANSTARRS,e,11.8353,45.6839,212.9588,2.903399,0.1992250,0.71611703,188.3824,12/12.0/2025,2000,g 17.0,2.0
# From MPEC 2025-W75
365P/PANSTARRS,e,9.8447,86.2996,67.7656,3.156322,0.1757648,0.58180876,139.6182,12/12.0/2025,2000,g 17.0,4.0
# From MPEC 2025-W75
366P/Spacewatch,e,8.8561,70.7581,152.9354,3.500342,0.1505007,0.34868362,47.4322,12/12.0/2025,2000,g 15.0,4.0
# From MPEC 2025-W75
367P/Catalina,e,8.4580,58.7101,172.6093,3.511554,0.1497804,0.28018833,50.1083,12/12.0/2025,2000,g 17.5,2.0
# From MPEC 2025-W75
368P/NEAT,e,15.4870,257.7809,119.0592,5.536395,0.0756595,0.62526758,200.1657,12/12.0/2025,2000,g 14.0,4.0
# From MPEC 2025-W75
369P/Hill,e,10.3205,47.2689,13.2692,4.377988,0.1075950,0.55582072,280.6914,12/12.0/2025,2000,g 15.0,4.0
# From MPEC 2025-W75
370P/NEAT,e,19.4195,55.0666,356.8241,6.441731,0.0602837,0.61484342,165.1441,12/12.0/2025,2000,g 13.0,4.0
# From MPEC 2025-W75
371P/LINEAR-Skiff,e,17.3883,67.2242,308.6203,4.180538,0.1153070,0.47641845,302.3346,12/12.0/2025,2000,g 16.0,4.0
# From MPEC 2025-W75
372P/McNaught,e,9.4988,325.7606,27.6726,4.513771,0.1027767,0.15104177,268.1309,12/12.0/2025,2000,g 13.5,4.0
# From MPEC 2025-W75
373P/Rinner,e,13.7724,231.9487,221.1509,3.796187,0.1332548,0.39382892,324.4188,12/12.0/2025,2000,g 14.5,4.0
# From MPEC 2025-W75
374P/Larson,e,10.7556,7.8342,51.6326,4.971498,0.0889146,0.46346086,224.3309,12/12.0/2025,2000,g 14.0,4.0
# From MPEC 2025-W75
375P/Hill,e,17.3798,359.8027,119.4934,5.544955,0.0754844,0.66039298,192.0555,12/12.0/2025,2000,g 16.0,4.0
# From MPEC 2025-W75
376P/LONEOS,e,1.1662,312.8529,285.3037,5.754031,0.0714078,0.51389975,162.9952,12/12.0/2025,2000,g 12.5,4.0
# From MPEC 2025-W75
377P/Scotti,e,9.0418,225.8483,354.9663,6.693979,0.0569086,0.25176551,112.7217,12/12.0/2025,2000,g  9.5,4.0
# From MPEC 2025-W75
378P/McNaught,e,19.1587,93.7922,193.2564,6.285836,0.0625402,0.46286400,118.4861,12/12.0/2025,2000,g 12.0,4.0
# From MPEC 2025-W75
379P/Spacewatch,e,12.4298,183.5094,31.6056,3.483961,0.1515633,0.34998236,348.9565,12/12.0/2025,2000,g 15.0,4.0
# From MPEC 2025-W75
380P/PANSTARRS,e,8.0406,127.6421,87.4356,4.452053,0.1049213,0.33288085,258.2607,12/12.0/2025,2000,g 12.5,4.0
# From MPEC 2025-W75
381P/LINEAR-Spacewatch,e,28.3250,173.8309,173.3387,7.145253,0.0516033,0.68024466,117.1849,12/12.0/2025,2000,g 17.5,2.0
# From MPEC 2025-W75
382P/Larson,e,8.3009,169.4940,162.7939,5.884813,0.0690407,0.26243863,104.3863,12/12.0/2025,2000,g  8.0,4.0
# From MPEC 2025-W75
383P/Christensen,e,12.3205,207.8201,133.7426,3.549513,0.1473842,0.59841524,330.1398,12/12.0/2025,2000,g 18.0,4.0
# From MPEC 2025-W75
384P/Kowalski,e,7.2840,354.1875,37.6961,2.897099,0.1998753,0.61618648,89.7285,12/12.0/2025,2000,g 19.5,4.0
# From MPEC 2025-W75
385P/Hill,e,16.8165,356.9893,44.5124,4.289250,0.1109512,0.40168766,252.6968,12/12.0/2025,2000,g 13.0,4.0
# From MPEC 2025-W75
386P/PANSTARRS,e,15.2487,134.9174,353.1277,4.048278,0.1210037,0.41766654,234.5506,12/12.0/2025,2000,g 14.5,4.0
# From MPEC 2025-W75
387P/Boattini,e,8.9427,259.2102,162.8888,4.797665,0.0937906,0.73683001,214.3769,12/12.0/2025,2000,g 15.0,4.0
# From MPEC 2025-W75
388P/Gibbs,e,23.8694,37.0072,42.3852,5.240969,0.0821460,0.61929270,191.3777,12/12.0/2025,2000,g 13.0,4.0
# From MPEC 2025-W75
389P/SidingSpring,e,160.0758,218.8302,249.2857,5.628887,0.0738024,0.70596014,160.3517,12/12.0/2025,2000,g 16.0,4.0
# From MPEC 2025-W75
390P/Gibbs,e,18.5150,152.1804,232.5878,5.819051,0.0702143,0.70633464,146.8304,12/12.0/2025,2000,g 12.0,4.0
# From MPEC 2025-W75
391P/Kowalski,e,21.2514,124.7081,186.8348,4.693024,0.0969449,0.11832667,274.6888,12/12.0/2025,2000,g  8.0,4.0
# From MPEC 2025-W75
392P/LINEAR,e,4.9255,24.7904,71.9950,6.143378,0.0647281,0.68391714,134.5443,12/12.0/2025,2000,g 14.5,4.0
# From MPEC 2025-W75
393P/Spacewatch-Hill,e,16.7805,36.4043,329.1502,4.802043,0.0936623,0.11875517,209.4497,12/12.0/2025,2000,g 11.0,4.0
# From MPEC 2025-W75
394P/PANSTARRS,e,8.5277,98.0885,54.5039,4.325189,0.1095712,0.36864694,241.2268,12/12.0/2025,2000,g 16.0,2.4
# From MPEC 2025-W75
395P/Catalina-NEAT,e,3.5668,220.9362,100.7919,7.203216,0.0509817,0.41046060,70.9409,12/12.0/2025,2000,g 10.0,4.0
# From MPEC 2025-W75
396P/Leonard,e,5.4440,136.6020,8.3223,6.798381,0.0556027,0.41725138,127.6578,12/12.0/2025,2000,g 12.0,4.0
# From MPEC 2025-W75
397P/Lemmon,e,10.9176,8.1643,14.6237,3.832622,0.1313591,0.40438509,262.8784,12/12.0/2025,2000,g 12.0,4.0
# From MPEC 2025-W75
398P/Boattini,e,11.0283,127.4069,320.2983,3.123674,0.1785277,0.58376986,322.8759,12/12.0/2025,2000,g 15.5,4.0
# From MPEC 2025-W75
399P/PANSTARRS,e,13.3136,207.1042,214.4738,3.793811,0.1333800,0.44714681,221.8376,12/12.0/2025,2000,g 14.0,4.0
# From MPEC 2025-W75
400P/PANSTARRS,e,10.9251,176.3324,238.9791,3.561866,0.1466182,0.40948965,258.6587,12/12.0/2025,2000,g 15.5,2.8
# From MPEC 2025-W75
401P/McNaught,e,12.8016,359.9134,309.3150,5.775816,0.0710042,0.57827333,156.3708,12/12.0/2025,2000,g 12.5,4.0
# From MPEC 2025-W75
402P/LINEAR,e,30.8289,123.0350,327.0620,7.044483,0.0527145,0.43993850,76.7928,12/12.0/2025,2000,g  8.0,4.0
# From MPEC 2025-W75
403P/Catalina,e,12.3135,163.7144,277.8389,5.433611,0.0778164,0.50412496,148.7012,12/12.0/2025,2000,g 12.0,4.0
# From MPEC 2025-W75
404P/Bressi,e,9.8038,260.0356,168.8452,4.716286,0.0962286,0.12383067,74.4452,12/12.0/2025,2000,g 10.0,4.0
# From MPEC 2025-W75
405P/Lemmon,e,9.3739,3.2050,112.3084,3.603233,0.1441005,0.69028837,261.0663,12/12.0/2025,2000,g 17.5,4.0
# From MPEC 2025-W75
406P/Gibbs,e,1.2100,11.4966,352.4358,3.580000,0.1455056,0.54085103,278.5189,12/12.0/2025,2000,g 17.0,4.0
# From MPEC 2025-W75
407P/PANSTARRS-Fuls,e,4.8730,80.2417,92.9792,3.495490,0.1508141,0.37544118,326.0043,12/12.0/2025,2000,g 14.0,4.0
# From MPEC 2025-W75
408P/Novichonok-Gerke,e,19.3483,189.4519,226.7331,4.746839,0.0953010,0.26819216,110.8353,12/12.0/2025,2000,g 11.0,4.0
# From MPEC 2025-W75
409P/LONEOS-Hill,e,17.1546,143.6393,15.0395,6.032489,0.0665211,0.71042535,118.2682,12/12.0/2025,2000,g 14.0,4.0
# From MPEC 2025-W75
410P/NEAT-LINEAR,e,9.3888,139.8935,313.3553,6.656368,0.0573916,0.51163967,93.6104,12/12.0/2025,2000,g 12.5,4.0
# From MPEC 2025-W75
411P/Christensen,e,12.3872,77.6477,46.5874,5.812095,0.0703404,0.58192489,125.2617,12/12.0/2025,2000,g 13.5,4.0
# From MPEC 2025-W75
412P/WISE,e,8.9282,0.8293,155.8283,3.112982,0.1794482,0.47912377,329.5711,12/12.0/2025,2000,g 17.0,4.0
# From MPEC 2025-W75
413P/Larson,e,15.9527,38.9395,186.6876,3.737055,0.1364300,0.41745891,220.0043,12/12.0/2025,2000,g 14.0,4.0
# From MPEC 2025-W75
414P/STEREO,e,23.4068,257.8150,210.7109,2.792327,0.2112295,0.81228423,16.1984,12/12.0/2025,2000,g 19.0,4.0
# From MPEC 2025-W75
415P/Tenagra,e,31.8150,160.2575,345.9199,4.107396,0.1184007,0.19572263,208.4841,12/12.0/2025,2000,g 12.0,4.0
# From MPEC 2025-W75
416P/Scotti,e,3.3642,355.7231,134.4798,4.005818,0.1229327,0.45564337,216.1880,12/12.0/2025,2000,g 15.5,4.0
# From MPEC 2025-W75
417P/NEOWISE,e,11.3532,95.2738,142.1159,3.385289,0.1582379,0.53697770,277.0107,12/12.0/2025,2000,g 16.5,4.0
# From MPEC 2025-W75
418P/LINEAR,e,5.7864,277.2635,307.6569,5.088018,0.0858778,0.66413932,130.3271,12/12.0/2025,2000,g 13.0,4.0
# From MPEC 2025-W75
419P/PANSTARRS,e,2.7919,40.3785,187.7494,3.537507,0.1481352,0.27261302,224.1917,12/12.0/2025,2000,g 12.5,4.0
# From MPEC 2025-W75
420P/Hill,e,14.5215,173.3774,156.3990,5.473531,0.0769667,0.49492713,100.4608,12/12.0/2025,2000,g 11.5,4.0
# From MPEC 2025-W75
421P/McNaught,e,10.0748,55.3155,259.8405,5.073870,0.0862373,0.67438614,153.8755,12/12.0/2025,2000,g 14.0,4.0
# From MPEC 2025-W75
422P/Christensen,e,39.5799,36.0090,304.7338,6.272131,0.0627453,0.50542836,89.8471,12/12.0/2025,2000,g 11.0,4.0
# From MPEC 2025-W75
423P/Lemmon,e,8.3407,33.3004,81.1072,6.184622,0.0640818,0.12279648,98.3817,12/12.0/2025,2000,g  8.0,4.0
# From MPEC 2025-W75
424P/LaSagra,e,8.6822,51.1909,312.5771,4.421576,0.1060079,0.69011586,159.3916,12/12.0/2025,2000,g 17.0,4.0
# From MPEC 2025-W75
425P/Kowalski,e,16.4089,210.0916,201.0196,6.353633,0.0615419,0.54346594,94.9757,12/12.0/2025,2000,g 12.0,4.0
# From MPEC 2025-W75
426P/PANSTARRS,e,17.7840,280.3957,118.3899,3.186072,0.1733088,0.16089726,142.7788,12/12.0/2025,2000,g 13.5,4.0
# From MPEC 2025-X35
427P/ATLAS,e,11.8650,252.3262,99.6252,3.163597,0.1751590,0.31518142,175.1283,12/12.0/2025,2000,g 14.0,4.0
# From MPEC 2025-W75
428P/Gibbs,e,8.5025,299.3063,36.8801,3.489142,0.1512259,0.51808929,253.2399,12/12.0/2025,2000,g 15.0,4.0
# From MPEC 2025-W75
429P/LINEAR-Hill,e,7.5140,322.0009,75.7513,3.556366,0.1469584,0.49061838,211.6242,12/12.0/2025,2000,g 15.5,4.0
# From MPEC 2025-W75
430P/Scotti,e,4.4760,54.6387,94.4766,3.102715,0.1803397,0.50045050,265.0675,12/12.0/2025,2000,g 16.5,4.0
# From MPEC 2025-W75
